[{"OBJECT_NAME":"YAOGAN-36 05A","OBJECT_ID":"2023-106A","EPOCH":"2026-03-04T20:25:46.095744","MEAN_MOTION":15.23103701,"ECCENTRICITY":0.0001493,"INCLINATION":35.0062,"RA_OF_ASC_NODE":353.7983,"ARG_OF_PERICENTER":236.3594,"MEAN_ANOMALY":123.6979,"EPHEMERIS_TYPE":0,"CLASSIFICATION_TYPE":"U","NORAD_CAT_ID":57452,"ELEMENT_SET_NO":999,"REV_AT_EPOCH":14523,"BSTAR":0.00020950106,"MEAN_MOTION_DOT":5.028e-5,"MEAN_MOTION_DDOT":0},{"OBJECT_NAME":"SITRO-AIS-61","OBJECT_ID":"2025-313BB","EPOCH":"2026-03-09T22:24:00.043776","MEAN_MOTION":15.23202528,"ECCENTRICITY":0.0008213,"INCLINATION":97.4015,"RA_OF_ASC_NODE":145.3615,"ARG_OF_PERICENTER":357.8269,"MEAN_ANOMALY":2.2931,"EPHEMERIS_TYPE":0,"CLASSIFICATION_TYPE":"U","NORAD_CAT_ID":67297,"ELEMENT_SET_NO":999,"REV_AT_EPOCH":1086,"BSTAR":0.0005465043,"MEAN_MOTION_DOT":0.0001288,"MEAN_MOTION_DDOT":0}]
